{
  "type": "FeatureCollection",
  "features": [
    {
      "type": "Feature",
      "properties": {
        "norad_id": 37961,
        "name": "COSMOS 2251 DEB",
        "group": "cosmos-2251-debris",
        "lat": -42.940452716147746,
        "lon": 134.88333883507676,
        "alt_km": 702.9323360842081,
        "timestamp": "2025-12-05T18:53:13.679564+00:00",
        "meta_object_name": "COSMOS 2251 DEB",
        "meta_object_id": "1993-036BPL",
        "meta_epoch": "2025-12-01T04:44:47.787648",
        "meta_mean_motion": 14.57792656,
        "meta_eccentricity": 0.0041244,
        "meta_inclination": 74.04,
        "meta_ra_of_asc_node": 159.049,
        "meta_arg_of_pericenter": 241.5465,
        "meta_mean_anomaly": 118.1542,
        "meta_ephemeris_type": 0,
        "meta_classification_type": "U",
        "meta_norad_cat_id": 37961,
        "meta_element_set_no": 999,
        "meta_rev_at_epoch": 79897,
        "meta_bstar": 0.001072,
        "meta_mean_motion_dot": 4.934e-05,
        "meta_mean_motion_ddot": 0,
        "tle_line1": "1 37961U 93036BPL 25335.19777532  .00004934  00000+0  10720-2 0  9997",
        "tle_line2": "2 37961  74.0400 159.0490 0041244 241.5465 118.1542 14.57792656798977"
      },
      "geometry": {
        "type": "Point",
        "coordinates": [
          134.88333883507676,
          -42.940452716147746
        ]
      }
    },
    {
      "type": "Feature",
      "properties": {
        "norad_id": 37966,
        "name": "COSMOS 2251 DEB",
        "group": "cosmos-2251-debris",
        "lat": 35.978117092271305,
        "lon": 52.95457289461485,
        "alt_km": 523.0971428708563,
        "timestamp": "2025-12-05T18:53:13.679574+00:00",
        "meta_object_name": "COSMOS 2251 DEB",
        "meta_object_id": "1993-036BPR",
        "meta_epoch": "2025-12-04T00:57:24.425856",
        "meta_mean_motion": 15.1122342,
        "meta_eccentricity": 0.0008631,
        "meta_inclination": 73.977,
        "meta_ra_of_asc_node": 248.6217,
        "meta_arg_of_pericenter": 122.4784,
        "meta_mean_anomaly": 237.7244,
        "meta_ephemeris_type": 0,
        "meta_classification_type": "U",
        "meta_norad_cat_id": 37966,
        "meta_element_set_no": 999,
        "meta_rev_at_epoch": 85211,
        "meta_bstar": 0.0061628837,
        "meta_mean_motion_dot": 0.00105178,
        "meta_mean_motion_ddot": 0,
        "tle_line1": "1 37966U 93036BPR 25338.03986604  .00105178  00000+0  61629-2 0  9996",
        "tle_line2": "2 37966  73.9770 248.6217 0008631 122.4784 237.7244 15.11223420852119"
      },
      "geometry": {
        "type": "Point",
        "coordinates": [
          52.95457289461485,
          35.978117092271305
        ]
      }
    },
    {
      "type": "Feature",
      "properties": {
        "norad_id": 37967,
        "name": "COSMOS 2251 DEB",
        "group": "cosmos-2251-debris",
        "lat": 19.222999867118,
        "lon": -35.47414823121258,
        "alt_km": 826.0418924512906,
        "timestamp": "2025-12-05T18:53:13.679584+00:00",
        "meta_object_name": "COSMOS 2251 DEB",
        "meta_object_id": "1993-036BPS",
        "meta_epoch": "2025-12-04T05:27:45.885024",
        "meta_mean_motion": 14.40381703,
        "meta_eccentricity": 0.0150733,
        "meta_inclination": 74.0136,
        "meta_ra_of_asc_node": 153.1499,
        "meta_arg_of_pericenter": 293.7669,
        "meta_mean_anomaly": 64.774,
        "meta_ephemeris_type": 0,
        "meta_classification_type": "U",
        "meta_norad_cat_id": 37967,
        "meta_element_set_no": 999,
        "meta_rev_at_epoch": 64613,
        "meta_bstar": 0.0030035,
        "meta_mean_motion_dot": 0.00010892,
        "meta_mean_motion_ddot": 0,
        "tle_line1": "1 37967U 93036BPS 25338.22761441  .00010892  00000+0  30035-2 0  9993",
        "tle_line2": "2 37967  74.0136 153.1499 0150733 293.7669  64.7740 14.40381703646137"
      },
      "geometry": {
        "type": "Point",
        "coordinates": [
          -35.47414823121258,
          19.222999867118
        ]
      }
    },
    {
      "type": "Feature",
      "properties": {
        "norad_id": 37968,
        "name": "COSMOS 2251 DEB",
        "group": "cosmos-2251-debris",
        "lat": -65.51546504844347,
        "lon": 144.38947801862415,
        "alt_km": 622.0714075462147,
        "timestamp": "2025-12-05T18:53:13.679594+00:00",
        "meta_object_name": "COSMOS 2251 DEB",
        "meta_object_id": "1993-036BPT",
        "meta_epoch": "2025-12-03T03:21:20.781504",
        "meta_mean_motion": 15.00197638,
        "meta_eccentricity": 0.00808241,
        "meta_inclination": 74.0001,
        "meta_ra_of_asc_node": 290.7252,
        "meta_arg_of_pericenter": 48.8285,
        "meta_mean_anomaly": 311.9836,
        "meta_ephemeris_type": 0,
        "meta_classification_type": "U",
        "meta_norad_cat_id": 37968,
        "meta_element_set_no": 999,
        "meta_rev_at_epoch": 60075,
        "meta_bstar": 0.0013441412,
        "meta_mean_motion_dot": 0.00018013,
        "meta_mean_motion_ddot": 0,
        "tle_line1": "1 37968U 93036BPT 25337.13982386  .00018013  00000+0  13441-2 0  9991",
        "tle_line2": "2 37968  74.0001 290.7252 0080824  48.8285 311.9836 15.00197638600750"
      },
      "geometry": {
        "type": "Point",
        "coordinates": [
          144.38947801862415,
          -65.51546504844347
        ]
      }
    },
    {
      "type": "Feature",
      "properties": {
        "norad_id": 37971,
        "name": "COSMOS 2251 DEB",
        "group": "cosmos-2251-debris",
        "lat": 26.245751447383814,
        "lon": 62.94070750377318,
        "alt_km": 776.8553931974047,
        "timestamp": "2025-12-05T18:53:13.679604+00:00",
        "meta_object_name": "COSMOS 2251 DEB",
        "meta_object_id": "1993-036BPW",
        "meta_epoch": "2025-12-03T12:03:21.948768",
        "meta_mean_motion": 14.48378174,
        "meta_eccentricity": 0.00684434,
        "meta_inclination": 73.9938,
        "meta_ra_of_asc_node": 59.093,
        "meta_arg_of_pericenter": 199.3195,
        "meta_mean_anomaly": 160.5369,
        "meta_ephemeris_type": 0,
        "meta_classification_type": "U",
        "meta_norad_cat_id": 37971,
        "meta_element_set_no": 999,
        "meta_rev_at_epoch": 60544,
        "meta_bstar": 0.0031797181,
        "meta_mean_motion_dot": 0.00012254,
        "meta_mean_motion_ddot": 0,
        "tle_line1": "1 37971U 93036BPW 25337.50233737  .00012254  00000+0  31797-2 0  9990",
        "tle_line2": "2 37971  73.9938  59.0930 0068443 199.3195 160.5369 14.48378174605442"
      },
      "geometry": {
        "type": "Point",
        "coordinates": [
          62.94070750377318,
          26.245751447383814
        ]
      }
    },
    {
      "type": "Feature",
      "properties": {
        "norad_id": 37975,
        "name": "COSMOS 2251 DEB",
        "group": "cosmos-2251-debris",
        "lat": -44.62090400795169,
        "lon": -38.735748515457715,
        "alt_km": 584.518036961993,
        "timestamp": "2025-12-05T18:53:13.679614+00:00",
        "meta_object_name": "COSMOS 2251 DEB",
        "meta_object_id": "1993-036BQA",
        "meta_epoch": "2025-11-29T10:05:48.736608",
        "meta_mean_motion": 14.74991313,
        "meta_eccentricity": 0.00977788,
        "meta_inclination": 74.0026,
        "meta_ra_of_asc_node": 350.1763,
        "meta_arg_of_pericenter": 342.2584,
        "meta_mean_anomaly": 17.5181,
        "meta_ephemeris_type": 0,
        "meta_classification_type": "U",
        "meta_norad_cat_id": 37975,
        "meta_element_set_no": 999,
        "meta_rev_at_epoch": 69549,
        "meta_bstar": 0.0028756754,
        "meta_mean_motion_dot": 0.00020929,
        "meta_mean_motion_ddot": 0,
        "tle_line1": "1 37975U 93036BQA 25333.42070297  .00020929  00000+0  28757-2 0  9991",
        "tle_line2": "2 37975  74.0026 350.1763 0097778 342.2584  17.5181 14.74991313695491"
      },
      "geometry": {
        "type": "Point",
        "coordinates": [
          -38.735748515457715,
          -44.62090400795169
        ]
      }
    },
    {
      "type": "Feature",
      "properties": {
        "norad_id": 37978,
        "name": "COSMOS 2251 DEB",
        "group": "cosmos-2251-debris",
        "lat": -50.41680841681438,
        "lon": 84.62184188280315,
        "alt_km": 351.5171793317995,
        "timestamp": "2025-12-05T18:53:13.679624+00:00",
        "meta_object_name": "COSMOS 2251 DEB",
        "meta_object_id": "1993-036BQD",
        "meta_epoch": "2025-11-19T05:08:53.100672",
        "meta_mean_motion": 15.61137081,
        "meta_eccentricity": 0.00148985,
        "meta_inclination": 74.0238,
        "meta_ra_of_asc_node": 142.2198,
        "meta_arg_of_pericenter": 140.9849,
        "meta_mean_anomaly": 219.2448,
        "meta_ephemeris_type": 0,
        "meta_classification_type": "U",
        "meta_norad_cat_id": 37978,
        "meta_element_set_no": 999,
        "meta_rev_at_epoch": 8032,
        "meta_bstar": 0.0043958825,
        "meta_mean_motion_dot": 0.0039117,
        "meta_mean_motion_ddot": 0,
        "tle_line1": "1 37978U 93036BQD 25323.21450348  .00391170  00000+0  43959-2 0  9999",
        "tle_line2": "2 37978  74.0238 142.2198 0014898 140.9849 219.2448 15.61137081 80328"
      },
      "geometry": {
        "type": "Point",
        "coordinates": [
          84.62184188280315,
          -50.41680841681438
        ]
      }
    }
  ]
}